{
  "type": "FeatureCollection",
  "features": [
    {
      "type": "Feature",
      "properties": {
        "norad_id": 30103,
        "name": "FENGYUN 1C DEB",
        "group": "fengyun-1c-debris",
        "lat": -57.83594653024949,
        "lon": -18.123594490445093,
        "alt_km": 862.052600730075,
        "timestamp": "2025-12-11T10:53:16.160702+00:00",
        "meta_object_name": "FENGYUN 1C DEB",
        "meta_object_id": "1999-025RG",
        "meta_epoch": "2025-12-10T12:06:28.204704",
        "meta_mean_motion": 14.24850712,
        "meta_eccentricity": 0.00640811,
        "meta_inclination": 99.2447,
        "meta_ra_of_asc_node": 325.8672,
        "meta_arg_of_pericenter": 126.1902,
        "meta_mean_anomaly": 348.7805,
        "meta_ephemeris_type": 0,
        "meta_classification_type": "U",
        "meta_norad_cat_id": 30103,
        "meta_element_set_no": 999,
        "meta_rev_at_epoch": 97887,
        "meta_bstar": 0.00064486504,
        "meta_mean_motion_dot": 1.49e-05,
        "meta_mean_motion_ddot": 0,
        "tle_line1": "1 30103U 99025RG  25344.50449311  .00001490  00000+0  64487-3 0  9992",
        "tle_line2": "2 30103  99.2447 325.8672 0064081 126.1902 348.7805 14.24850712978875"
      },
      "geometry": {
        "type": "Point",
        "coordinates": [
          -18.123594490445093,
          -57.83594653024949
        ]
      }
    },
    {
      "type": "Feature",
      "properties": {
        "norad_id": 30104,
        "name": "FENGYUN 1C DEB",
        "group": "fengyun-1c-debris",
        "lat": 34.86954975076198,
        "lon": 8.459731732072553,
        "alt_km": 759.0797880042555,
        "timestamp": "2025-12-11T10:53:16.160713+00:00",
        "meta_object_name": "FENGYUN 1C DEB",
        "meta_object_id": "1999-025RH",
        "meta_epoch": "2025-12-11T02:23:38.806080",
        "meta_mean_motion": 14.25657815,
        "meta_eccentricity": 0.0073973,
        "meta_inclination": 98.3595,
        "meta_ra_of_asc_node": 182.2414,
        "meta_arg_of_pericenter": 112.9634,
        "meta_mean_anomaly": 15.8598,
        "meta_ephemeris_type": 0,
        "meta_classification_type": "U",
        "meta_norad_cat_id": 30104,
        "meta_element_set_no": 999,
        "meta_rev_at_epoch": 97869,
        "meta_bstar": 0.00099401,
        "meta_mean_motion_dot": 2.385e-05,
        "meta_mean_motion_ddot": 0,
        "tle_line1": "1 30104U 99025RH  25345.09975470  .00002385  00000+0  99401-3 0  9996",
        "tle_line2": "2 30104  98.3595 182.2414 0073973 112.9634  15.8598 14.25657815978695"
      },
      "geometry": {
        "type": "Point",
        "coordinates": [
          8.459731732072553,
          34.86954975076198
        ]
      }
    },
    {
      "type": "Feature",
      "properties": {
        "norad_id": 30105,
        "name": "FENGYUN 1C DEB",
        "group": "fengyun-1c-debris",
        "lat": -81.15294525907485,
        "lon": 47.83587235365437,
        "alt_km": 967.1169657226765,
        "timestamp": "2025-12-11T10:53:16.160723+00:00",
        "meta_object_name": "FENGYUN 1C DEB",
        "meta_object_id": "1999-025RJ",
        "meta_epoch": "2025-12-11T04:33:03.358944",
        "meta_mean_motion": 14.21394034,
        "meta_eccentricity": 0.0199801,
        "meta_inclination": 98.5939,
        "meta_ra_of_asc_node": 331.2748,
        "meta_arg_of_pericenter": 78.427,
        "meta_mean_anomaly": 283.9262,
        "meta_ephemeris_type": 0,
        "meta_classification_type": "U",
        "meta_norad_cat_id": 30105,
        "meta_element_set_no": 999,
        "meta_rev_at_epoch": 97740,
        "meta_bstar": 0.00045866,
        "meta_mean_motion_dot": 1.183e-05,
        "meta_mean_motion_ddot": 0,
        "tle_line1": "1 30105U 99025RJ  25345.18962221  .00001183  00000+0  45866-3 0  9998",
        "tle_line2": "2 30105  98.5939 331.2748 0199801  78.4270 283.9262 14.21394034977408"
      },
      "geometry": {
        "type": "Point",
        "coordinates": [
          47.83587235365437,
          -81.15294525907485
        ]
      }
    },
    {
      "type": "Feature",
      "properties": {
        "norad_id": 30106,
        "name": "FENGYUN 1C DEB",
        "group": "fengyun-1c-debris",
        "lat": -37.80593403376818,
        "lon": -100.3554932233866,
        "alt_km": 636.1880992857223,
        "timestamp": "2025-12-11T10:53:16.160734+00:00",
        "meta_object_name": "FENGYUN 1C DEB",
        "meta_object_id": "1999-025RK",
        "meta_epoch": "2025-12-11T05:16:58.971072",
        "meta_mean_motion": 14.84952546,
        "meta_eccentricity": 0.0047054,
        "meta_inclination": 98.9229,
        "meta_ra_of_asc_node": 252.3818,
        "meta_arg_of_pericenter": 202.8687,
        "meta_mean_anomaly": 310.716,
        "meta_ephemeris_type": 0,
        "meta_classification_type": "U",
        "meta_norad_cat_id": 30106,
        "meta_element_set_no": 999,
        "meta_rev_at_epoch": 98522,
        "meta_bstar": 0.0070341,
        "meta_mean_motion_dot": 0.00061569,
        "meta_mean_motion_ddot": 0,
        "tle_line1": "1 30106U 99025RK  25345.22012698  .00061569  00000+0  70341-2 0  9997",
        "tle_line2": "2 30106  98.9229 252.3818 0047054 202.8687 310.7160 14.84952546985225"
      },
      "geometry": {
        "type": "Point",
        "coordinates": [
          -100.3554932233866,
          -37.80593403376818
        ]
      }
    },
    {
      "type": "Feature",
      "properties": {
        "norad_id": 30107,
        "name": "FENGYUN 1C DEB",
        "group": "fengyun-1c-debris",
        "lat": -31.85525243751623,
        "lon": -143.16933445855202,
        "alt_km": 813.9277244264958,
        "timestamp": "2025-12-11T10:53:16.160744+00:00",
        "meta_object_name": "FENGYUN 1C DEB",
        "meta_object_id": "1999-025RL",
        "meta_epoch": "2025-12-09T15:25:51.509856",
        "meta_mean_motion": 14.14419826,
        "meta_eccentricity": 0.0126272,
        "meta_inclination": 98.8473,
        "meta_ra_of_asc_node": 40.5906,
        "meta_arg_of_pericenter": 284.5008,
        "meta_mean_anomaly": 74.2185,
        "meta_ephemeris_type": 0,
        "meta_classification_type": "U",
        "meta_norad_cat_id": 30107,
        "meta_element_set_no": 999,
        "meta_rev_at_epoch": 97517,
        "meta_bstar": 0.00018997,
        "meta_mean_motion_dot": 3.47e-06,
        "meta_mean_motion_ddot": 0,
        "tle_line1": "1 30107U 99025RL  25343.64295729  .00000347  00000+0  18997-3 0  9997",
        "tle_line2": "2 30107  98.8473  40.5906 0126272 284.5008  74.2185 14.14419826975179"
      },
      "geometry": {
        "type": "Point",
        "coordinates": [
          -143.16933445855202,
          -31.85525243751623
        ]
      }
    },
    {
      "type": "Feature",
      "properties": {
        "norad_id": 30108,
        "name": "FENGYUN 1C DEB",
        "group": "fengyun-1c-debris",
        "lat": 71.44991166682145,
        "lon": 178.35075735116234,
        "alt_km": 801.9266866947946,
        "timestamp": "2025-12-11T10:53:16.160756+00:00",
        "meta_object_name": "FENGYUN 1C DEB",
        "meta_object_id": "1999-025RM",
        "meta_epoch": "2025-12-10T12:54:25.352352",
        "meta_mean_motion": 14.17165857,
        "meta_eccentricity": 0.0197783,
        "meta_inclination": 98.66,
        "meta_ra_of_asc_node": 330.4467,
        "meta_arg_of_pericenter": 28.488,
        "meta_mean_anomaly": 85.7826,
        "meta_ephemeris_type": 0,
        "meta_classification_type": "U",
        "meta_norad_cat_id": 30108,
        "meta_element_set_no": 999,
        "meta_rev_at_epoch": 97567,
        "meta_bstar": 0.00058382,
        "meta_mean_motion_dot": 1.382e-05,
        "meta_mean_motion_ddot": 0,
        "tle_line1": "1 30108U 99025RM  25344.53779343  .00001382  00000+0  58382-3 0  9998",
        "tle_line2": "2 30108  98.6600 330.4467 0197783  28.4880  85.7826 14.17165857975670"
      },
      "geometry": {
        "type": "Point",
        "coordinates": [
          178.35075735116234,
          71.44991166682145
        ]
      }
    },
    {
      "type": "Feature",
      "properties": {
        "norad_id": 30109,
        "name": "FENGYUN 1C DEB",
        "group": "fengyun-1c-debris",
        "lat": -32.328023191713186,
        "lon": 153.58308477845392,
        "alt_km": 728.802803833888,
        "timestamp": "2025-12-11T10:53:16.160766+00:00",
        "meta_object_name": "FENGYUN 1C DEB",
        "meta_object_id": "1999-025RN",
        "meta_epoch": "2025-12-09T22:23:37.675680",
        "meta_mean_motion": 14.17541435,
        "meta_eccentricity": 0.01672401,
        "meta_inclination": 98.5077,
        "meta_ra_of_asc_node": 337.562,
        "meta_arg_of_pericenter": 240.5499,
        "meta_mean_anomaly": 137.4454,
        "meta_ephemeris_type": 0,
        "meta_classification_type": "U",
        "meta_norad_cat_id": 30109,
        "meta_element_set_no": 999,
        "meta_rev_at_epoch": 97512,
        "meta_bstar": 0.0005474072,
        "meta_mean_motion_dot": 1.232e-05,
        "meta_mean_motion_ddot": 0,
        "tle_line1": "1 30109U 99025RN  25343.93307495  .00001232  00000+0  54741-3 0  9996",
        "tle_line2": "2 30109  98.5077 337.5620 0167240 240.5499 137.4454 14.17541435975127"
      },
      "geometry": {
        "type": "Point",
        "coordinates": [
          153.58308477845392,
          -32.328023191713186
        ]
      }
    }
  ]
}